NORAD_CAT_ID,OBJECT_NAME,OBJECT_TYPE,EPOCH,MEAN_MOTION,ECCENTRICITY,INCLINATION,RA_OF_ASC_NODE,ARG_OF_PERICENTER,MEAN_ANOMALY,BSTAR,MEAN_MOTION_DOT,MEAN_MOTION_DDOT,TLE_LINE0,TLE_LINE1,TLE_LINE2,SEMIMAJOR_AXIS,PERIOD,APOGEE,PERIGEE,DECAYED
56773.0,STARLINK-6296,PAYLOAD,2024-02-06 14:00:01,15.3897936,0.0003465,69.9994,67.8346,278.9048,96.9558,-0.025547,-0.00908743,0.0,0 STARLINK-6296,1 56773U 23078G   24037.58335648 -.00908743  00000-0 -25547-1 0  9993,2 56773  69.9994  67.8346 0003465 278.9048  96.9558 15.38979360  5936,6827.263,93.569,451.494,446.763,0.0
56773.0,STARLINK-6296,PAYLOAD,2024-02-06 22:00:00,15.38294389,0.000339,69.9996,66.9406,273.5175,148.1254,-0.024688,-0.00862434,0.0,0 STARLINK-6296,1 56773U 23078G   24037.91667824 -.00862434  00000-0 -24688-1 0  9995,2 56773  69.9996  66.9406 0003390 273.5175 148.1254 15.38294389  5983,6829.29,93.61,453.47,448.84,0.0
56773.0,STARLINK-6296,PAYLOAD,2024-02-07 06:00:00,15.3769395,0.0003349,69.9996,66.0473,275.6712,191.007,-0.027828,-0.00945753,0.0,0 STARLINK-6296,1 56773U 23078G   24038.25001157 -.00945753  00000-0 -27828-1 0  9999,2 56773  69.9996  66.0473 0003349 275.6712 191.0070 15.37693950 39821,6831.067,93.647,455.22,450.645,0.0
56773.0,STARLINK-6296,PAYLOAD,2024-02-07 14:00:01,15.37022765,0.0003289,69.9991,65.1547,279.8558,231.0972,-0.0273,-0.00910788,0.0,0 STARLINK-6296,1 56773U 23078G   24038.58334491 -.00910788  00000-0 -27300-1 0  9990,2 56773  69.9991  65.1547 0003289 279.8558 231.0972 15.37022765  5925,6833.056,93.688,457.168,452.674,0.0
56773.0,STARLINK-6296,PAYLOAD,2024-02-07 22:00:00,15.36336698,0.000325,69.9992,64.263,272.6379,281.8137,-0.026216,-0.0085958,0.0,0 STARLINK-6296,1 56773U 23078G   24038.91667824 -.00859580  00000-0 -26216-1 0  9993,2 56773  69.9992  64.2630 0003250 272.6379 281.8137 15.36336698  5983,6835.09,93.729,459.176,454.734,0.0
56773.0,STARLINK-6296,PAYLOAD,2024-02-08 06:00:00,15.35731936,0.0003263,69.9995,63.3724,273.6242,323.5178,-0.029343,-0.00936649,0.0,0 STARLINK-6296,1 56773U 23078G   24039.25001157 -.00936649  00000-0 -29343-1 0  9998,2 56773  69.9995  63.3724 0003263 273.6242 323.5178 15.35731936 39983,6836.884,93.766,460.98,456.518,0.0
56773.0,STARLINK-6296,PAYLOAD,2024-02-08 14:00:01,15.35072204,0.0003366,69.9989,62.4823,276.7866,2.2802,-0.029487,-0.00922772,0.0,0 STARLINK-6296,1 56773U 23078G   24039.58334491 -.00922772  00000-0 -29487-1 0  9995,2 56773  69.9989  62.4823 0003366 276.7866   2.2802 15.35072204  6037,6838.843,93.807,463.01,458.406,0.0
56773.0,STARLINK-6296,PAYLOAD,2024-02-08 22:00:01,15.34375657,0.0003363,69.999,61.5931,271.239,49.0465,-0.027673,-0.0085263,0.0,0 STARLINK-6296,1 56773U 23078G   24039.91668981 -.00852630  00000-0 -27673-1 0  9996,2 56773  69.9990  61.5931 0003363 271.2390  49.0465 15.34375657  6028,6840.913,93.849,465.078,460.477,0.0
56773.0,STARLINK-6296,PAYLOAD,2024-02-09 06:00:02,15.33779281,0.0003413,69.9992,60.7049,274.2608,86.3659,-0.031501,-0.0094405,0.0,0 STARLINK-6296,1 56773U 23078G   24040.25002315 -.00944050  00000-0 -31501-1 0  9991,2 56773  69.9992  60.7049 0003413 274.2608  86.3659 15.33779281 40131,6842.686,93.886,466.886,462.215,0.0
56773.0,STARLINK-6296,PAYLOAD,2024-02-09 14:00:01,15.33118191,0.0003439,69.9987,59.8175,278.4301,121.711,-0.031545,-0.00927263,0.0,0 STARLINK-6296,1 56773U 23078G   24040.58334491 -.00927263  00000-0 -31545-1 0  9995,2 56773  69.9987  59.8175 0003439 278.4301 121.7110 15.33118191  6043,6844.653,93.926,468.872,464.164,0.0
56773.0,STARLINK-6296,PAYLOAD,2024-02-10 06:00:00,15.31821401,0.0003284,69.999,58.0454,275.1891,201.7561,-0.033529,-0.00944511,0.0,0 STARLINK-6296,1 56773U 23078G   24041.25001157 -.00944511  00000-0 -33529-1 0  9999,2 56773  69.9990  58.0454 0003284 275.1891 201.7561 15.31821401 40280,6848.515,94.006,472.629,468.131,0.0
56773.0,STARLINK-6296,PAYLOAD,2024-02-10 14:00:01,15.31165869,0.0003212,69.9987,57.1606,277.6642,236.5105,-0.033847,-0.00934941,0.0,0 STARLINK-6296,1 56773U 23078G   24041.58334491 -.00934941  00000-0 -33847-1 0  9994,2 56773  69.9987  57.1606 0003212 277.6642 236.5105 15.31165869  6042,6850.47,94.046,474.535,470.134,0.0
56773.0,STARLINK-6296,PAYLOAD,2024-02-10 22:00:01,15.30464631,0.0003179,69.9988,56.2769,270.0159,280.683,-0.031315,-0.00853006,0.0,0 STARLINK-6296,1 56773U 23078G   24041.91668981 -.00853006  00000-0 -31315-1 0  9995,2 56773  69.9988  56.2769 0003179 270.0159 280.6830 15.30464631 40394,6852.562,94.089,476.605,472.249,0.0
56773.0,STARLINK-6296,PAYLOAD,2024-02-11 14:00:01,15.29213743,0.0003233,69.9987,54.5119,275.1398,346.0277,-0.036357,-0.00956408,0.0,0 STARLINK-6296,1 56773U 23078G   24042.58334491 -.00956408  00000-0 -36357-1 0  9996,2 56773  69.9987  54.5119 0003233 275.1398 346.0277 15.29213743 40492,6856.298,94.166,480.38,475.947,0.0
56773.0,STARLINK-6296,PAYLOAD,2024-02-11 22:00:01,15.28506515,0.0003261,69.9991,53.6309,268.9725,26.3735,-0.033104,-0.00849118,0.0,0 STARLINK-6296,1 56773U 23078G   24042.91668981 -.00849118  00000-0 -33104-1 0  9993,2 56773  69.9991  53.6309 0003261 268.9725  26.3735 15.28506515  6044,6858.413,94.21,482.515,478.042,0.0
56773.0,STARLINK-6296,PAYLOAD,2024-02-12 06:00:02,15.27897964,0.0003319,69.9992,52.7507,273.7959,54.858,-0.037167,-0.00940247,0.0,0 STARLINK-6296,1 56773U 23078G   24043.25002315 -.00940247  00000-0 -37167-1 0  9992,2 56773  69.9992  52.7507 0003319 273.7959  54.8580 15.27897964 40594,6860.234,94.247,484.376,479.822,0.0
56773.0,STARLINK-6296,PAYLOAD,2024-02-12 14:00:01,15.272595,0.0003346,69.999,51.8714,277.1154,84.0046,-0.038801,-0.00960998,0.0,0 STARLINK-6296,1 56773U 23078G   24043.58334491 -.00960998  00000-0 -38801-1 0  9992,2 56773  69.9990  51.8714 0003346 277.1154  84.0046 15.27259500  6049,6862.146,94.287,486.307,481.715,0.0
56773.0,STARLINK-6296,PAYLOAD,2024-02-12 22:00:00,15.26551184,0.0003327,69.9994,50.9931,271.4242,121.464,-0.035179,-0.00849979,0.0,0 STARLINK-6296,1 56773U 23078G   24043.91667824 -.00849979  00000-0 -35179-1 0  9998,2 56773  69.9994  50.9931 0003327 271.4242 121.4640 15.26551184  6035,6864.268,94.33,488.417,483.85,0.0
56773.0,STARLINK-6296,PAYLOAD,2024-02-13 14:00:01,15.25303328,0.0003277,69.9994,49.2391,279.0388,174.9946,-0.041253,-0.00962764,0.0,0 STARLINK-6296,1 56773U 23078G   24044.58334491 -.00962764  00000-0 -41253-1 0  9991,2 56773  69.9994  49.2391 0003277 279.0388 174.9946 15.25303328 40792,6868.012,94.407,492.127,487.626,0.0
56773.0,STARLINK-6296,PAYLOAD,2024-02-13 22:00:00,15.24601025,0.0003233,69.9999,48.3635,272.3577,211.0941,-0.037789,-0.00859987,0.0,0 STARLINK-6296,1 56773U 23078G   24044.91667824 -.00859987  00000-0 -37789-1 0  9998,2 56773  69.9999  48.3635 0003233 272.3577 211.0941 15.24601025  6048,6870.121,94.451,494.207,489.765,0.0
56773.0,STARLINK-6296,PAYLOAD,2024-02-14 06:00:00,15.239754,0.0003196,69.9999,47.4887,275.9754,236.098,-0.041268,-0.00928132,0.0,0 STARLINK-6296,1 56773U 23078G   24045.25001157 -.00928132  00000-0 -41268-1 0  9993,2 56773  69.9999  47.4887 0003196 275.9754 236.0980 15.23975400 40892,6872.001,94.49,496.062,491.67,0.0
56773.0,STARLINK-6296,PAYLOAD,2024-02-14 14:00:01,15.23346803,0.0003211,69.9998,46.6146,277.3584,262.5477,-0.043878,-0.00965506,0.0,0 STARLINK-6296,1 56773U 23078G   24045.58334491 -.00965506  00000-0 -43878-1 0  9994,2 56773  69.9998  46.6146 0003211 277.3584 262.5477 15.23346803  5980,6873.891,94.529,497.963,493.549,0.0
56773.0,STARLINK-6296,PAYLOAD,2024-02-14 22:00:01,15.22649212,0.0003203,70.0002,45.7416,270.1886,296.8498,-0.040403,-0.00866864,0.0,0 STARLINK-6296,1 56773U 23078G   24045.91668981 -.00866864  00000-0 -40403-1 0  9993,2 56773  70.0002  45.7416 0003203 270.1886 296.8498 15.22649212  6046,6875.99,94.572,500.058,495.653,0.0
56773.0,STARLINK-6296,PAYLOAD,2024-02-15 06:00:02,15.22015232,0.0003259,70.0003,44.8694,274.1855,319.1311,-0.04345,-0.00922373,0.0,0 STARLINK-6296,1 56773U 23078G   24046.25002315 -.00922373  00000-0 -43450-1 0  9997,2 56773  70.0003  44.8694 0003259 274.1855 319.1311 15.22015232 41058,6877.9,94.611,502.006,497.523,0.0
56773.0,STARLINK-6296,PAYLOAD,2024-02-15 14:00:01,15.21391818,0.0003288,70.0001,43.9979,275.3253,343.4122,-0.046742,-0.00970306,0.0,0 STARLINK-6296,1 56773U 23078G   24046.58334491 -.00970306  00000-0 -46742-1 0  9992,2 56773  70.0001  43.9979 0003288 275.3253 343.4122 15.21391818  5998,6879.779,94.65,503.906,499.381,0.0
56773.0,STARLINK-6296,PAYLOAD,2024-02-15 22:00:00,15.2069417,0.0003327,70.0004,43.1275,269.2672,14.1906,-0.042904,-0.00879222,0.0,0 STARLINK-6296,1 56773U 23078G   24046.91667824 -.00879222  00000-0 -42904-1 0  9999,2 56773  70.0004  43.1275 0003327 269.2672  14.1906 15.20694170  6048,6881.883,94.694,506.037,501.458,0.0
56773.0,STARLINK-6296,PAYLOAD,2024-02-16 06:00:00,15.20057262,0.0003322,70.0005,42.2579,274.0209,33.3706,-0.045877,-0.00919682,0.0,0 STARLINK-6296,1 56773U 23078G   24047.25001157 -.00919682  00000-0 -45877-1 0  9995,2 56773  70.0005  42.2579 0003322 274.0209  33.3706 15.20057262 41204,6883.805,94.733,507.957,503.383,0.0
56773.0,STARLINK-6296,PAYLOAD,2024-02-16 14:00:01,15.19433403,0.0003388,70.0002,41.389,275.7159,54.8135,-0.049433,-0.00969103,0.0,0 STARLINK-6296,1 56773U 23078G   24047.58334491 -.00969103  00000-0 -49433-1 0  9996,2 56773  70.0002  41.3890 0003388 275.7159  54.8135 15.19433403  6007,6885.689,94.772,509.887,505.221,0.0
56773.0,STARLINK-6296,PAYLOAD,2024-02-16 22:00:00,15.18739544,0.0003391,70.0005,40.5212,270.4023,82.4987,-0.045554,-0.00881666,0.0,0 STARLINK-6296,1 56773U 23078G   24047.91667824 -.00881666  00000-0 -45554-1 0  9999,2 56773  70.0005  40.5212 0003391 270.4023  82.4987 15.18739544  6056,6887.786,94.815,511.987,507.315,0.0
56773.0,STARLINK-6296,PAYLOAD,2024-02-17 06:00:00,15.18100475,0.0003344,70.0005,39.6541,275.2678,99.2209,-0.048546,-0.00919438,0.0,0 STARLINK-6296,1 56773U 23078G   24048.25001157 -.00919438  00000-0 -48546-1 0  9991,2 56773  70.0005  39.6541 0003344 275.2678  99.2209 15.18100475 41357,6889.719,94.855,513.888,509.28,0.0
